{"type": "FeatureCollection", "features": [ {"type": "Feature", "properties": {"norad_id": 66888, "name": "STARLINK-35919", "group": "last-30-days", "lat": 50.82773910983712, "lon": 148.00171687737435, "alt_km": 339.3350408480519, "timestamp": "2025-12-20T11:30:27.106909+00:00", "meta": {"OBJECT_NAME": "STARLINK-35919", "OBJECT_ID": "2025-283L", "EPOCH": "2025-12-20T04:00:00.999072", "MEAN_MOTION": 15.74209702, "ECCENTRICITY": 0.000119, "INCLINATION": 53.1575, "RA_OF_ASC_NODE": 36.518, "ARG_OF_PERICENTER": 101.0084, "MEAN_ANOMALY": 29.5697, "EPHEMERIS_TYPE": 0, "CLASSIFICATION_TYPE": "U", "NORAD_CAT_ID": 66888, "ELEMENT_SET_NO": 999, "REV_AT_EPOCH": 362, "BSTAR": -0.000381, "MEAN_MOTION_DOT": -0.00056108, "MEAN_MOTION_DDOT": 0}, "tle": {"line1": "1 66888U 25283L   25354.16667823 -.00056108  00000+0 -38100-3 0  9990", "line2": "2 66888  53.1575  36.5180 0001190 101.0084  29.5697 15.74209702  3628"}}, "geometry": {"type": "Point", "coordinates": [148.00171687737435, 50.82773910983712]}}, {"type": "Feature", "properties": {"norad_id": 66889, "name": "STARLINK-35852", "group": "last-30-days", "lat": 50.192502384454016, "lon": 150.8408812096362, "alt_km": 339.73974107623417, "timestamp": "2025-12-20T11:30:27.106919+00:00", "meta": {"OBJECT_NAME": "STARLINK-35852", "OBJECT_ID": "2025-283M", "EPOCH": "2025-12-20T04:00:00.999072", "MEAN_MOTION": 15.74222806, "ECCENTRICITY": 6.81e-05, "INCLINATION": 53.1571, "RA_OF_ASC_NODE": 36.514, "ARG_OF_PERICENTER": 100.8569, "MEAN_ANOMALY": 31.6217, "EPHEMERIS_TYPE": 0, "CLASSIFICATION_TYPE": "U", "NORAD_CAT_ID": 66889, "ELEMENT_SET_NO": 999, "REV_AT_EPOCH": 362, "BSTAR": -0.000421, "MEAN_MOTION_DOT": -0.00061922, "MEAN_MOTION_DDOT": 0}, "tle": {"line1": "1 66889U 25283M   25354.16667823 -.00061922  00000+0 -42100-3 0  9996", "line2": "2 66889  53.1571  36.5140 0000681 100.8569  31.6217 15.74222806  3622"}}, "geometry": {"type": "Point", "coordinates": [150.8408812096362, 50.192502384454016]}}, {"type": "Feature", "properties": {"norad_id": 66890, "name": "STARLINK-35885", "group": "last-30-days", "lat": 49.48788605443599, "lon": 153.6127512089309, "alt_km": 339.6204412659099, "timestamp": "2025-12-20T11:30:27.106929+00:00", "meta": {"OBJECT_NAME": "STARLINK-35885", "OBJECT_ID": "2025-283N", "EPOCH": "2025-12-20T04:00:00.999072", "MEAN_MOTION": 15.74226339, "ECCENTRICITY": 0.0001129, "INCLINATION": 53.1577, "RA_OF_ASC_NODE": 36.5104, "ARG_OF_PERICENTER": 80.0641, "MEAN_ANOMALY": 54.3281, "EPHEMERIS_TYPE": 0, "CLASSIFICATION_TYPE": "U", "NORAD_CAT_ID": 66890, "ELEMENT_SET_NO": 999, "REV_AT_EPOCH": 362, "BSTAR": -0.00046628, "MEAN_MOTION_DOT": -0.00068474, "MEAN_MOTION_DDOT": 0}, "tle": {"line1": "1 66890U 25283N   25354.16667823 -.00068474  00000+0 -46628-3 0  9996", "line2": "2 66890  53.1577  36.5104 0001129  80.0641  54.3281 15.74226339  3626"}}, "geometry": {"type": "Point", "coordinates": [153.6127512089309, 49.48788605443599]}}, {"type": "Feature", "properties": {"norad_id": 66891, "name": "STARLINK-35855", "group": "last-30-days", "lat": 48.73057840924222, "lon": 156.25926872938032, "alt_km": 339.39312799440813, "timestamp": "2025-12-20T11:30:27.106939+00:00", "meta": {"OBJECT_NAME": "STARLINK-35855", "OBJECT_ID": "2025-283P", "EPOCH": "2025-12-20T04:00:00.999072", "MEAN_MOTION": 15.74198383, "ECCENTRICITY": 0.0001355, "INCLINATION": 53.1574, "RA_OF_ASC_NODE": 36.5059, "ARG_OF_PERICENTER": 106.5315, "MEAN_ANOMALY": 29.7522, "EPHEMERIS_TYPE": 0, "CLASSIFICATION_TYPE": "U", "NORAD_CAT_ID": 66891, "ELEMENT_SET_NO": 999, "REV_AT_EPOCH": 362, "BSTAR": 0.00022177, "MEAN_MOTION_DOT": 0.00031986, "MEAN_MOTION_DDOT": 0}, "tle": {"line1": "1 66891U 25283P   25354.16667823  .00031986  00000+0  22177-3 0  9996", "line2": "2 66891  53.1574  36.5059 0001355 106.5315  29.7522 15.74198383  3627"}}, "geometry": {"type": "Point", "coordinates": [156.25926872938032, 48.73057840924222]}}, {"type": "Feature", "properties": {"norad_id": 66892, "name": "STARLINK-35883", "group": "last-30-days", "lat": 47.89199726634181, "lon": 158.89266642203623, "alt_km": 339.81291445257557, "timestamp": "2025-12-20T11:30:27.106951+00:00", "meta": {"OBJECT_NAME": "STARLINK-35883", "OBJECT_ID": "2025-283Q", "EPOCH": "2025-12-20T04:00:00.999072", "MEAN_MOTION": 15.74194834, "ECCENTRICITY": 0.0001176, "INCLINATION": 53.1574, "RA_OF_ASC_NODE": 36.5022, "ARG_OF_PERICENTER": 85.5611, "MEAN_ANOMALY": 52.6808, "EPHEMERIS_TYPE": 0, "CLASSIFICATION_TYPE": "U", "NORAD_CAT_ID": 66892, "ELEMENT_SET_NO": 999, "REV_AT_EPOCH": 356, "BSTAR": -0.00013496, "MEAN_MOTION_DOT": -0.00020351, "MEAN_MOTION_DDOT": 0}, "tle": {"line1": "1 66892U 25283Q   25354.16667823 -.00020351  00000+0 -13496-3 0  9997", "line2": "2 66892  53.1574  36.5022 0001176  85.5611  52.6808 15.74194834  3566"}}, "geometry": {"type": "Point", "coordinates": [158.89266642203623, 47.89199726634181]}}, {"type": "Feature", "properties": {"norad_id": 66893, "name": "STARLINK-36033", "group": "last-30-days", "lat": 47.00608691012776, "lon": 161.4083562962335, "alt_km": 340.1822796774113, "timestamp": "2025-12-20T11:30:27.106962+00:00", "meta": {"OBJECT_NAME": "STARLINK-36033", "OBJECT_ID": "2025-283R", "EPOCH": "2025-12-20T04:00:00.999072", "MEAN_MOTION": 15.74224616, "ECCENTRICITY": 8.12e-05, "INCLINATION": 53.1573, "RA_OF_ASC_NODE": 36.4981, "ARG_OF_PERICENTER": 86.6528, "MEAN_ANOMALY": 53.4946, "EPHEMERIS_TYPE": 0, "CLASSIFICATION_TYPE": "U", "NORAD_CAT_ID": 66893, "ELEMENT_SET_NO": 999, "REV_AT_EPOCH": 362, "BSTAR": -0.0005204, "MEAN_MOTION_DOT": -0.00076271, "MEAN_MOTION_DDOT": 0}, "tle": {"line1": "1 66893U 25283R   25354.16667823 -.00076271  00000+0 -52040-3 0  9998", "line2": "2 66893  53.1573  36.4981 0000812  86.6528  53.4946 15.74224616  3625"}}, "geometry": {"type": "Point", "coordinates": [161.4083562962335, 47.00608691012776]}}, {"type": "Feature", "properties": {"norad_id": 66894, "name": "STARLINK-35718", "group": "last-30-days", "lat": 46.064093707051406, "lon": 163.84756514951906, "alt_km": 339.94178444721274, "timestamp": "2025-12-20T11:30:27.106974+00:00", "meta": {"OBJECT_NAME": "STARLINK-35718", "OBJECT_ID": "2025-283S", "EPOCH": "2025-12-20T04:00:00.999072", "MEAN_MOTION": 15.74215928, "ECCENTRICITY": 0.0001368, "INCLINATION": 53.1576, "RA_OF_ASC_NODE": 36.4945, "ARG_OF_PERICENTER": 94.3488, "MEAN_ANOMALY": 47.7242, "EPHEMERIS_TYPE": 0, "CLASSIFICATION_TYPE": "U", "NORAD_CAT_ID": 66894, "ELEMENT_SET_NO": 999, "REV_AT_EPOCH": 362, "BSTAR": -0.00039988, "MEAN_MOTION_DOT": -0.00058855, "MEAN_MOTION_DDOT": 0}, "tle": {"line1": "1 66894U 25283S   25354.16667823 -.00058855  00000+0 -39988-3 0  9993", "line2": "2 66894  53.1576  36.4945 0001368  94.3488  47.7242 15.74215928  3628"}}, "geometry": {"type": "Point", "coordinates": [163.84756514951906, 46.064093707051406]}}, {"type": "Feature", "properties": {"norad_id": 66895, "name": "STARLINK-35971", "group": "last-30-days", "lat": 44.04035494088595, "lon": 168.45550193353017, "alt_km": 340.29146825683347, "timestamp": "2025-12-20T11:30:27.106985+00:00", "meta": {"OBJECT_NAME": "STARLINK-35971", "OBJECT_ID": "2025-283T", "EPOCH": "2025-12-20T04:00:00.999072", "MEAN_MOTION": 15.74198626, "ECCENTRICITY": 0.0001351, "INCLINATION": 53.1575, "RA_OF_ASC_NODE": 36.4851, "ARG_OF_PERICENTER": 88.174, "MEAN_ANOMALY": 57.7324, "EPHEMERIS_TYPE": 0, "CLASSIFICATION_TYPE": "U", "NORAD_CAT_ID": 66895, "ELEMENT_SET_NO": 999, "REV_AT_EPOCH": 362, "BSTAR": -9.3826e-05, "MEAN_MOTION_DOT": -0.00014353, "MEAN_MOTION_DDOT": 0}, "tle": {"line1": "1 66895U 25283T   25354.16667823 -.00014353  00000+0 -93826-4 0  9991", "line2": "2 66895  53.1575  36.4851 0001351  88.1740  57.7324 15.74198626  3625"}}, "geometry": {"type": "Point", "coordinates": [168.45550193353017, 44.04035494088595]}}, {"type": "Feature", "properties": {"norad_id": 66896, "name": "STARLINK-35791", "group": "last-30-days", "lat": 45.07290508829561, "lon": 166.19749240277443, "alt_km": 340.19333374790494, "timestamp": "2025-12-20T11:30:27.106998+00:00", "meta": {"OBJECT_NAME": "STARLINK-35791", "OBJECT_ID": "2025-283U", "EPOCH": "2025-12-20T04:00:00.999072", "MEAN_MOTION": 15.74227386, "ECCENTRICITY": 0.0001148, "INCLINATION": 53.1574, "RA_OF_ASC_NODE": 36.4894, "ARG_OF_PERICENTER": 103.2878, "MEAN_ANOMALY": 40.7004, "EPHEMERIS_TYPE": 0, "CLASSIFICATION_TYPE": "U", "NORAD_CAT_ID": 66896, "ELEMENT_SET_NO": 999, "REV_AT_EPOCH": 362, "BSTAR": -0.00049743, "MEAN_MOTION_DOT": -0.00072971, "MEAN_MOTION_DDOT": 0}, "tle": {"line1": "1 66896U 25283U   25354.16667823 -.00072971  00000+0 -49743-3 0  9990", "line2": "2 66896  53.1574  36.4894 0001148 103.2878  40.7004 15.74227386  3620"}}, "geometry": {"type": "Point", "coordinates": [166.19749240277443, 45.07290508829561]}}, {"type": "Feature", "properties": {"norad_id": 66897, "name": "STARLINK-36079", "group": "last-30-days", "lat": 42.95748351269271, "lon": 170.6485073480135, "alt_km": 340.53629471330987, "timestamp": "2025-12-20T11:30:27.107009+00:00", "meta": {"OBJECT_NAME": "STARLINK-36079", "OBJECT_ID": "2025-283V", "EPOCH": "2025-12-20T04:00:00.999072", "MEAN_MOTION": 15.74222708, "ECCENTRICITY": 0.0001154, "INCLINATION": 53.1573, "RA_OF_ASC_NODE": 36.4814, "ARG_OF_PERICENTER": 98.5909, "MEAN_ANOMALY": 49.2317, "EPHEMERIS_TYPE": 0, "CLASSIFICATION_TYPE": "U", "NORAD_CAT_ID": 66897, "ELEMENT_SET_NO": 999, "REV_AT_EPOCH": 362, "BSTAR": -0.00041873, "MEAN_MOTION_DOT": -0.00061596, "MEAN_MOTION_DDOT": 0}, "tle": {"line1": "1 66897U 25283V   25354.16667823 -.00061596  00000+0 -41873-3 0  9998", "line2": "2 66897  53.1573  36.4814 0001154  98.5909  49.2317 15.74222708  3624"}}, "geometry": {"type": "Point", "coordinates": [170.6485073480135, 42.95748351269271]}}]}